NORAD_CAT_ID,OBJECT_NAME,OBJECT_TYPE,EPOCH,MEAN_MOTION,ECCENTRICITY,INCLINATION,RA_OF_ASC_NODE,ARG_OF_PERICENTER,MEAN_ANOMALY,BSTAR,MEAN_MOTION_DOT,MEAN_MOTION_DDOT,TLE_LINE0,TLE_LINE1,TLE_LINE2,SEMIMAJOR_AXIS,PERIOD,APOGEE,PERIGEE,DECAYED
56467.0,STARLINK-6055,PAYLOAD,2023-05-29 12:16:55,15.69927627,0.0003469,69.9987,192.4832,269.1949,90.885,5.7613e-05,6.721e-05,0.0,0 STARLINK-6055,1 56467U 23064V   23149.51175113  .00006721  00000-0  57613-4 0  9998,2 56467  69.9987 192.4832 0003469 269.1949  90.8850 15.69927627  2971,6737.241,91.724,361.443,356.769,0.0
56467.0,STARLINK-6055,PAYLOAD,2023-05-29 19:55:40,15.6993261,0.0003479,69.9987,191.5873,269.3162,90.7635,0.00010364,0.00012272,0.0,0 STARLINK-6055,1 56467U 23064V   23149.83033483  .00012272  00000-0  10364-3 0  9995,2 56467  69.9987 191.5873 0003479 269.3162  90.7635 15.69932610  3021,6737.227,91.724,361.436,356.748,0.0
56467.0,STARLINK-6055,PAYLOAD,2023-05-30 11:13:12,15.69939682,0.0003496,69.9988,189.7959,267.1189,92.9607,0.00011625,0.00013798,0.0,0 STARLINK-6055,1 56467U 23064V   23150.46750046  .00013798  00000-0  11625-3 0  9992,2 56467  69.9988 189.7959 0003496 267.1189  92.9607 15.69939682  3478,6737.207,91.723,361.427,356.716,0.0
56467.0,STARLINK-6055,PAYLOAD,2023-05-30 12:44:57,15.69939678,0.0003495,69.9987,189.6166,267.2078,92.8717,0.00010501,0.00012441,0.0,0 STARLINK-6055,1 56467U 23064V   23150.53121670  .00012441  00000-0  10501-3 0  9991,2 56467  69.9987 189.6166 0003495 267.2078  92.8717 15.69939678  3132,6737.207,91.723,361.426,356.717,0.0
56467.0,STARLINK-6055,PAYLOAD,2023-05-30 18:51:57,15.69933313,0.0003475,69.9987,188.9002,267.6464,92.4333,7.2189e-05,8.479e-05,0.0,0 STARLINK-6055,1 56467U 23064V   23150.78608514  .00008479  00000-0  72189-4 0  9992,2 56467  69.9987 188.9002 0003475 267.6464  92.4333 15.69933313  3527,6737.225,91.724,361.431,356.749,0.0
56467.0,STARLINK-6055,PAYLOAD,2023-05-30 20:23:42,15.69935438,0.0003486,69.9987,188.7212,267.7744,92.3052,8.3545e-05,9.849e-05,0.0,0 STARLINK-6055,1 56467U 23064V   23150.84980150  .00009849  00000-0  83545-4 0  9998,2 56467  69.9987 188.7212 0003486 267.7744  92.3052 15.69935438  3181,6737.219,91.724,361.432,356.735,0.0
56467.0,STARLINK-6055,PAYLOAD,2023-05-31 11:41:14,15.69913503,0.0003399,69.9985,186.9291,270.2578,89.8228,3.1272e-07,-1.75e-06,0.0,0 STARLINK-6055,1 56467U 23064V   23151.48697250 -.00000175  00000-0  31272-6 0  9991,2 56467  69.9985 186.9291 0003399 270.2578  89.8228 15.69913503  3289,6737.281,91.725,361.436,356.856,0.0
56467.0,STARLINK-6055,PAYLOAD,2023-05-31 14:44:44,15.69919657,0.0003445,69.9984,186.5712,267.9146,92.1655,4.6759e-06,3.49e-06,0.0,0 STARLINK-6055,1 56467U 23064V   23151.61440511  .00000349  00000-0  46759-5 0  9999,2 56467  69.9984 186.5712 0003445 267.9146  92.1655 15.69919657  3656,6737.264,91.724,361.45,356.808,0.0
56467.0,STARLINK-6055,PAYLOAD,2023-05-31 20:51:44,15.69932036,0.0003459,69.9985,185.8548,268.992,91.088,8.5797e-05,0.00010119,0.0,0 STARLINK-6055,1 56467U 23064V   23151.86927080  .00010119  00000-0  85797-4 0  9997,2 56467  69.9985 185.8548 0003459 268.9920  91.0880 15.69932036  3342,6737.228,91.724,361.424,356.763,0.0
56467.0,STARLINK-6055,PAYLOAD,2023-06-01 02:58:45,15.69933549,0.000351,69.9984,185.1379,267.9757,92.1037,0.00014728,0.00017541,0.0,0 STARLINK-6055,1 56467U 23064V   23152.12413784  .00017541  00000-0  14728-3 0  9999,2 56467  69.9984 185.1379 0003510 267.9757  92.1037 15.69933549  3730,6737.224,91.724,361.454,356.724,0.0
56467.0,STARLINK-6055,PAYLOAD,2023-06-01 10:37:30,15.69949824,0.0003514,69.9983,184.2421,269.0037,91.0756,0.00022704,0.00027205,0.0,0 STARLINK-6055,1 56467U 23064V   23152.44271815  .00027205  00000-0  22704-3 0  9992,2 56467  69.9983 184.2421 0003514 269.0037  91.0756 15.69949824  3431,6737.178,91.723,361.41,356.675,0.0
56467.0,STARLINK-6055,PAYLOAD,2023-06-01 19:48:01,15.69935056,0.0003497,69.9982,183.1669,269.8629,90.2166,0.00013078,0.00015549,0.0,0 STARLINK-6055,1 56467U 23064V   23152.82501974  .00015549  00000-0  13078-3 0  9998,2 56467  69.9982 183.1669 0003497 269.8629  90.2166 15.69935056  3840,6737.22,91.724,361.441,356.729,0.0
56467.0,STARLINK-6055,PAYLOAD,2023-06-02 01:55:02,15.69933124,0.0003146,69.9979,182.4502,266.2343,93.8493,0.00017417,0.00020789,0.0,0 STARLINK-6055,1 56467U 23064V   23153.07988907  .00020789  00000-0  17417-3 0  9994,2 56467  69.9979 182.4502 0003146 266.2343  93.8493 15.69933124  3889,6737.225,91.724,361.21,356.971,0.0
56467.0,STARLINK-6055,PAYLOAD,2023-06-02 09:33:47,15.69934881,0.0003459,69.9979,181.5551,265.1457,94.9343,0.00010731,0.00012716,0.0,0 STARLINK-6055,1 56467U 23064V   23153.39847158  .00012716  00000-0  10731-3 0  9994,2 56467  69.9979 181.5551 0003459 265.1457  94.9343 15.69934881  3937,6737.22,91.724,361.416,356.755,0.0
56467.0,STARLINK-6055,PAYLOAD,2023-06-02 11:05:33,15.69932197,0.0003537,69.9978,181.3756,267.1467,92.9324,0.00019552,0.00023371,0.0,0 STARLINK-6055,1 56467U 23064V   23153.46218920  .00023371  00000-0  19552-3 0  9990,2 56467  69.9978 181.3756 0003537 267.1467  92.9324 15.69932197  3598,6737.228,91.724,361.476,356.71,0.0
56467.0,STARLINK-6055,PAYLOAD,2023-06-02 18:44:18,15.69933423,0.0003717,69.9978,180.4797,269.0426,91.0344,0.00015421,0.00018378,0.0,0 STARLINK-6055,1 56467U 23064V   23153.78077231  .00018378  00000-0  15421-3 0  9995,2 56467  69.9978 180.4797 0003717 269.0426  91.0344 15.69933423  3640,6737.224,91.724,361.594,356.585,0.0
56467.0,STARLINK-6055,PAYLOAD,2023-06-03 02:23:04,15.69936564,0.0002645,69.9974,179.5838,275.0241,85.0653,0.0001408,0.00016758,0.0,0 STARLINK-6055,1 56467U 23064V   23154.09935895  .00016758  00000-0  14080-3 0  9999,2 56467  69.9974 179.5838 0002645 275.0241  85.0653 15.69936564  4042,6737.215,91.723,360.862,357.298,0.0
56467.0,STARLINK-6055,PAYLOAD,2023-06-03 10:01:50,15.69930797,0.0003323,69.9982,178.6893,267.0924,92.9891,5.8453e-05,6.823e-05,0.0,0 STARLINK-6055,1 56467U 23064V   23154.41794019  .00006823  00000-0  58453-4 0  9991,2 56467  69.9982 178.6893 0003323 267.0924  92.9891 15.69930797  4093,6737.232,91.724,361.336,356.858,0.0
56467.0,STARLINK-6055,PAYLOAD,2023-06-03 11:33:35,15.6992653,0.0003206,69.9984,178.5093,270.6214,89.4614,3.108e-05,3.526e-05,0.0,0 STARLINK-6055,1 56467U 23064V   23154.48165802  .00003526  00000-0  31080-4 0  9994,2 56467  69.9984 178.5093 0003206 270.6214  89.4614 15.69926530  3754,6737.244,91.724,361.269,356.949,0.0
56467.0,STARLINK-6055,PAYLOAD,2023-06-03 19:12:20,15.69928358,0.0003385,69.9975,177.6136,268.3388,91.742,3.5099e-05,4.01e-05,0.0,0 STARLINK-6055,1 56467U 23064V   23154.80024069  .00004010  00000-0  35099-4 0  9992,2 56467  69.9975 177.6136 0003385 268.3388  91.7420 15.69928358  3803,6737.239,91.724,361.385,356.823,0.0
56467.0,STARLINK-6055,PAYLOAD,2023-06-04 02:51:06,15.69922706,0.0003389,69.9986,176.7181,271.7588,88.322,1.2746e-05,1.32e-05,0.0,0 STARLINK-6055,1 56467U 23064V   23155.11882603  .00001320  00000-0  12746-4 0  9998,2 56467  69.9986 176.7181 0003389 271.7588  88.3220 15.69922706  4205,6737.255,91.724,361.403,356.837,0.0
56467.0,STARLINK-6055,PAYLOAD,2023-06-04 13:33:22,15.69928817,0.0003462,69.9984,175.4649,268.5851,91.4949,2.5041e-05,2.8e-05,0.0,0 STARLINK-6055,1 56467U 23064V   23155.56484050  .00002800  00000-0  25041-4 0  9997,2 56467  69.9984 175.4649 0003462 268.5851  91.4949 15.69928817  3927,6737.238,91.724,361.435,356.77,0.0
56467.0,STARLINK-6055,PAYLOAD,2023-06-04 15:05:07,15.69930402,0.0003531,69.9982,175.286,267.6525,92.4267,2.1209e-05,2.339e-05,0.0,0 STARLINK-6055,1 56467U 23064V   23155.62855589  .00002339  00000-0  21209-4 0  9992,2 56467  69.9982 175.2860 0003531 267.6525  92.4267 15.69930402  3931,6737.233,91.724,361.477,356.719,0.0
56467.0,STARLINK-6055,PAYLOAD,2023-06-05 04:50:53,15.69923545,0.0003643,69.998,173.6729,263.5455,96.5326,6.8017e-06,6.05e-06,0.0,0 STARLINK-6055,1 56467U 23064V   23156.20200827  .00000605  00000-0  68017-5 0  9999,2 56467  69.9980 173.6729 0003643 263.5455  96.5326 15.69923545  4376,6737.253,91.724,361.572,356.663,0.0
56467.0,STARLINK-6055,PAYLOAD,2023-06-05 12:29:39,15.69923524,0.0003635,69.9978,172.7768,263.5477,96.5305,4.2769e-06,3.01e-06,0.0,0 STARLINK-6055,1 56467U 23064V   23156.52059179  .00000301  00000-0  42769-5 0  9995,2 56467  69.9978 172.7768 0003635 263.5477  96.5305 15.69923524  4072,6737.253,91.724,361.567,356.669,0.0
56467.0,STARLINK-6055,PAYLOAD,2023-06-05 18:36:39,15.69922739,0.000362,69.9978,172.0594,263.2434,96.835,6.1181e-06,5.23e-06,0.0,0 STARLINK-6055,1 56467U 23064V   23156.77545932  .00000523  00000-0  61181-5 0  9994,2 56467  69.9978 172.0594 0003620 263.2434  96.8350 15.69922739  4111,6737.255,91.724,361.559,356.681,0.0
56467.0,STARLINK-6055,PAYLOAD,2023-06-06 08:22:25,15.69922452,0.00034,69.9972,170.4476,259.2377,100.8436,2.43e-05,2.71e-05,0.0,0 STARLINK-6055,1 56467U 23064V   23157.34890969  .00002710  00000-0  24300-4 0  9992,2 56467  69.9972 170.4476 0003400 259.2377 100.8436 15.69922452  4554,6737.256,91.724,361.412,356.83,0.0
56467.0,STARLINK-6055,PAYLOAD,2023-06-06 09:54:10,15.69923476,0.0003463,69.9973,170.2692,263.1178,96.9624,1.509e-05,1.602e-05,0.0,0 STARLINK-6055,1 56467U 23064V   23157.41262729  .00001602  00000-0  15090-4 0  9992,2 56467  69.9973 170.2692 0003463 263.1178  96.9624 15.69923476  4219,6737.253,91.724,361.451,356.785,0.0
56467.0,STARLINK-6055,PAYLOAD,2023-06-06 12:57:41,15.69927454,0.0003496,69.9973,169.9112,264.7907,95.2889,5.2624e-06,4.2e-06,0.0,0 STARLINK-6055,1 56467U 23064V   23157.54005964  .00000420  00000-0  52624-5 0  9994,2 56467  69.9973 169.9112 0003496 264.7907  95.2889 15.69927454  4231,6737.242,91.724,361.462,356.751,0.0
56467.0,STARLINK-6055,PAYLOAD,2023-06-07 04:15:11,15.69955853,0.0003693,69.9974,168.1193,263.7357,96.3418,-6.1817e-05,-7.65e-05,0.0,0 STARLINK-6055,1 56467U 23064V   23158.17722174 -.00007650  00000-0 -61817-4 0  9990,2 56467  69.9974 168.1193 0003693 263.7357  96.3418 15.69955853  4682,6737.16,91.722,361.513,356.537,0.0
